NORAD_CAT_ID,OBJECT_NAME,OBJECT_TYPE,EPOCH,MEAN_MOTION,ECCENTRICITY,INCLINATION,RA_OF_ASC_NODE,ARG_OF_PERICENTER,MEAN_ANOMALY,BSTAR,MEAN_MOTION_DOT,MEAN_MOTION_DDOT,TLE_LINE0,TLE_LINE1,TLE_LINE2,SEMIMAJOR_AXIS,PERIOD,APOGEE,PERIGEE,DECAYED
53168.0,STARLINK-4105,PAYLOAD,2023-01-24 19:56:51,15.08837226,0.0001085,53.2133,241.1471,89.7407,270.371,4.9259e-05,4.96e-06,0.0,0 STARLINK-4105,1 53168U 22083AN  23024.83115603  .00000496  00000-0  49259-4 0  9998,2 53168  53.2133 241.1471 0001085  89.7407 270.3710 15.08837226 29914,6917.889,95.438,540.504,539.003,0.0
53168.0,STARLINK-4105,PAYLOAD,2023-01-25 13:26:06,15.08832736,0.0001095999999999,53.2141,237.8777,93.4749,266.6368,1.6625e-06,-2.61e-06,0.0,0 STARLINK-4105,1 53168U 22083AN  23025.55980031 -.00000261  00000-0  16625-5 0  9996,2 53168  53.2141 237.8777 0001096  93.4749 266.6368 15.08832736 29397,6917.903,95.438,540.526,539.009,0.0
53168.0,STARLINK-4105,PAYLOAD,2023-01-25 19:47:39,15.08836752,0.0001161999999999,53.2145,236.6883,98.88,261.2324,-4.3819e-05,-9.85e-06,0.0,0 STARLINK-4105,1 53168U 22083AN  23025.82475925 -.00000985  00000-0 -43819-4 0  9995,2 53168  53.2145 236.6883 0001162  98.8800 261.2324 15.08836752 29437,6917.89,95.438,540.559,538.951,0.0
53168.0,STARLINK-4105,PAYLOAD,2023-01-25 21:23:02,15.08840624,0.000108,53.2154,236.3909,101.6682,258.4431,2.2586e-05,7.2e-07,0.0,0 STARLINK-4105,1 53168U 22083AN  23025.89100125  .00000072  00000-0  22586-4 0  9992,2 53168  53.2154 236.3909 0001080 101.6682 258.4431 15.08840624 30075,6917.878000000001,95.438,540.491,538.996,0.0
53168.0,STARLINK-4105,PAYLOAD,2023-01-26 13:16:53,15.08842771,0.0001159999999999,53.2153,233.4171,93.2395,266.873,0.00016434,2.329e-05,0.0,0 STARLINK-4105,1 53168U 22083AN  23026.55339745  .00002329  00000-0  16434-3 0  9999,2 53168  53.2153 233.4171 0001160  93.2395 266.8730 15.08842771 29549,6917.871999999999,95.437,540.539,538.934,0.0
53168.0,STARLINK-4105,PAYLOAD,2023-01-26 21:13:49,15.08847055,0.0001136,53.2141,231.9301,89.4502,270.66200000000003,0.00021475,3.132e-05,0.0,0 STARLINK-4105,1 53168U 22083AN  23026.88459526  .00003132  00000-0  21475-3 0  9999,2 53168  53.2141 231.9301 0001136  89.4502 270.6620 15.08847055 30222,6917.859,95.437,540.51,538.938,0.0
53168.0,STARLINK-4105,PAYLOAD,2023-01-27 08:21:31,15.08840441,0.0001145,53.2139,229.8492,88.0095,272.1028,0.00013813,1.911e-05,0.0,0 STARLINK-4105,1 53168U 22083AN  23027.34827856  .00001911  00000-0  13813-3 0  9996,2 53168  53.2139 229.8492 0001145  88.0095 272.1028 15.08840441 30296,6917.879,95.438,540.536,538.952,0.0
53168.0,STARLINK-4105,PAYLOAD,2023-01-27 19:29:13,15.08838513,0.0001097999999999,53.2135,227.7665,84.2698,275.8419,6.0278e-05,6.72e-06,0.0,0 STARLINK-4105,1 53168U 22083AN  23027.81196032  .00000672  00000-0  60278-4 0  9994,2 53168  53.2135 227.7665 0001098  84.2698 275.8419 15.08838513 29733,6917.885,95.438,540.51,538.99,0.0
53168.0,STARLINK-4105,PAYLOAD,2023-01-28 12:58:27,15.08838656,0.0001139,53.2135,224.4954,83.9353,276.1769,-2.2939e-05,-6.53e-06,0.0,0 STARLINK-4105,1 53168U 22083AN  23028.54060055 -.00000653  00000-0 -22939-4 0  9993,2 53168  53.2135 224.4954 0001139  83.9353 276.1769 15.08838656 30471,6917.884,95.438,540.537,538.962,0.0
53168.0,STARLINK-4105,PAYLOAD,2023-01-28 19:20:00,15.08842318,0.0001159,53.2142,223.3063,82.7963,277.3161,2.3424e-06,-2.51e-06,0.0,0 STARLINK-4105,1 53168U 22083AN  23028.80555973 -.00000251  00000-0  23424-5 0  9994,2 53168  53.2142 223.3063 0001159  82.7963 277.3161 15.08842318 29886,6917.873,95.437,540.54,538.937,0.0
53168.0,STARLINK-4105,PAYLOAD,2023-01-29 17:35:24,15.08839358,0.0001162,53.214,219.1424,82.8668,277.2456,8.4483e-05,1.057e-05,0.0,0 STARLINK-4105,1 53168U 22083AN  23029.73291838  .00001057  00000-0  84483-4 0  9999,2 53168  53.2140 219.1424 0001162  82.8668 277.2456 15.08839358 30658,6917.882,95.438,540.551,538.943,0.0
53168.0,STARLINK-4105,PAYLOAD,2023-01-29 22:21:33,15.08842985,0.0001154,53.2143,218.25,83.1967,276.9157,7.5955e-05,9.21e-06,0.0,0 STARLINK-4105,1 53168U 22083AN  23029.93163600  .00000921  00000-0  75955-4 0  9999,2 53168  53.2143 218.2500 0001154  83.1967 276.9157 15.08842985 30051,6917.871,95.437,540.535,538.938,0.0
53168.0,STARLINK-4105,PAYLOAD,2023-01-30 12:40:01,15.08836716,0.0001171,53.2141,215.5733,83.8892,276.2234,5.6412e-05,6.1e-06,0.0,0 STARLINK-4105,1 53168U 22083AN  23030.52780080  .00000610  00000-0  56412-4 0  9995,2 53168  53.2141 215.5733 0001171  83.8892 276.2234 15.08836716 30144,6917.89,95.438,540.566,538.945,0.0
53168.0,STARLINK-4105,PAYLOAD,2023-01-30 19:01:34,15.0884109,0.0001163,53.2141,214.3835,84.5741,275.5384,5.8451e-05,6.43e-06,0.0,0 STARLINK-4105,1 53168U 22083AN  23030.79275793  .00000643  00000-0  58451-4 0  9995,2 53168  53.2141 214.3835 0001163  84.5741 275.5384 15.08841090 30819,6917.877,95.437,540.547,538.938,0.0
53168.0,STARLINK-4105,PAYLOAD,2023-01-30 22:12:20,15.08841017,0.0001163,53.2141,213.7888,83.8968,276.2156,5.4842e-05,5.85e-06,0.0,0 STARLINK-4105,1 53168U 22083AN  23030.92523787  .00000585  00000-0  54842-4 0  9994,2 53168  53.2141 213.7888 0001163  83.8968 276.2156 15.08841017 30200,6917.877,95.437,540.547,538.938,0.0
53168.0,STARLINK-4105,PAYLOAD,2023-01-31 12:30:49,15.08839115,0.0001143,53.214,211.1124,85.6692,274.4431,9.6718e-06,-1.34e-06,0.0,0 STARLINK-4105,1 53168U 22083AN  23031.52140052 -.00000134  00000-0  96718-5 0  9991,2 53168  53.2140 211.1124 0001143  85.6692 274.4431 15.08839115 30297,6917.883,95.438,540.539,538.957,0.0
53168.0,STARLINK-4105,PAYLOAD,2023-01-31 22:03:07,15.08841709,0.0001168,53.2141,209.3283,84.9408,275.1717,2.9312e-05,1.79e-06,0.0,0 STARLINK-4105,1 53168U 22083AN  23031.91883795  .00000179  00000-0  29312-4 0  9995,2 53168  53.2141 209.3283 0001168  84.9408 275.1717 15.08841709 30351,6917.875,95.437,540.548,538.932,0.0
53168.0,STARLINK-4105,PAYLOAD,2023-02-01 12:21:36,15.08836482,0.0001196,53.2133,206.6517,85.0266,275.0862,3.6022e-06,-2.31e-06,0.0,0 STARLINK-4105,1 53168U 22083AN  23032.51500278 -.00000231  00000-0  36022-5 0  9991,2 53168  53.2133 206.6517 0001196  85.0266 275.0862 15.08836482 31079,6917.891,95.438,540.584,538.929,0.0
53168.0,STARLINK-4105,PAYLOAD,2023-02-02 10:37:00,15.08838035,0.0001171,53.2137,202.4883,85.9788,274.1338,4.9814e-05,5.05e-06,0.0,0 STARLINK-4105,1 53168U 22083AN  23033.44236184  .00000505  00000-0  49814-4 0  9991,2 53168  53.2137 202.4883 0001171  85.9788 274.1338 15.08838035 30583,6917.886,95.438,540.561,538.941,0.0
53168.0,STARLINK-4105,PAYLOAD,2023-02-03 04:06:14,15.08851778,0.0001116,53.2146,199.2173,91.0988,269.0132,-0.00010323,-1.931e-05,0.0,0 STARLINK-4105,1 53168U 22083AN  23034.17099732 -.00001931  00000-0 -10323-3 0  9996,2 53168  53.2146 199.2173 0001116  91.0988 269.0132 15.08851778 31324,6917.844,95.437,540.481,538.937,0.0
53168.0,STARLINK-4105,PAYLOAD,2023-02-03 10:27:47,15.08836692,0.0001124,53.2148,198.0281,92.2004,267.9117,6.439e-05,7.37e-06,0.0,0 STARLINK-4105,1 53168U 22083AN  23034.43596307  .00000737  00000-0  64390-4 0  9990,2 53168  53.2148 198.0281 0001124  92.2004 267.9117 15.08836692 31366,6917.891,95.438,540.533,538.978,0.0
53168.0,STARLINK-4105,PAYLOAD,2023-02-04 10:18:34,15.08840782,0.0001102,53.2138,193.567,90.9094,269.2024,4.8852e-05,4.9e-06,0.0,0 STARLINK-4105,1 53168U 22083AN  23035.42956167  .00000490  00000-0  48852-4 0  9995,2 53168  53.2138 193.5670 0001102  90.9094 269.2024 15.08840782 30880,6917.878,95.438,540.505,538.981,0.0
53168.0,STARLINK-4105,PAYLOAD,2023-02-04 19:50:52,15.08843423,0.0001064,53.214,191.783,90.5237,269.5877,6.4744e-05,7.43e-06,0.0,0 STARLINK-4105,1 53168U 22083AN  23035.82699892  .00000743  00000-0  64744-4 0  9997,2 53168  53.2140 191.7830 0001064  90.5237 269.5877 15.08843423 31574,6917.87,95.437,540.471,538.999,0.0
53168.0,STARLINK-4105,PAYLOAD,2023-02-05 13:20:08,15.08833459,0.00013,53.2135,188.5108,97.9503,262.1637,-2.07e-06,-3.21e-06,0.0,0 STARLINK-4105,1 53168U 22083AN  23036.55564921 -.00000321  00000-0 -20700-5 0  9991,2 53168  53.2135 188.5108 0001300  97.9503 262.1637 15.08833459 31683,6917.9,95.438,540.665,538.866,0.0
53168.0,STARLINK-4105,PAYLOAD,2023-02-05 19:41:40,15.08834952,0.0001153,53.2147,187.3228,91.9591,268.1533,-9.0646e-07,-3.02e-06,0.0,0 STARLINK-4105,1 53168U 22083AN  23036.82060921 -.00000302  00000-0 -90646-6 0  9998,2 53168  53.2147 187.3228 0001153  91.9591 268.1533 15.08834952 31098,6917.896,95.438,540.558,538.963,0.0
53168.0,STARLINK-4105,PAYLOAD,2023-02-06 10:00:08,15.08842147,0.0001184,53.2154,184.6465,91.9341,268.1787,5.9922e-05,6.66e-06,0.0,0 STARLINK-4105,1 53168U 22083AN  23037.41676392  .00000666  00000-0  59922-4 0  9990,2 53168  53.2154 184.6465 0001184  91.9341 268.1787 15.08842147 31812,6917.874,95.437,540.558,538.92,0.0
53168.0,STARLINK-4105,PAYLOAD,2023-02-06 13:10:54,15.08845516,0.0001163,53.2152,184.0518,92.6465,267.466,8.8684e-05,1.124e-05,0.0,0 STARLINK-4105,1 53168U 22083AN  23037.54924091  .00001124  00000-0  88684-4 0  9993,2 53168  53.2152 184.0518 0001163  92.6465 267.4660 15.08845516 31203,6917.864,95.437,540.533,538.924,0.0
53168.0,STARLINK-4105,PAYLOAD,2023-02-06 19:32:26,15.08856257,0.0001022,53.2156,182.8617,92.9939,267.117,0.00013656,1.887e-05,0.0,0 STARLINK-4105,1 53168U 22083AN  23037.81419168  .00001887  00000-0  13656-3 0  9999,2 53168  53.2156 182.8617 0001022  92.9939 267.1170 15.08856257 31876,6917.831,95.437,540.403,538.989,0.0
53168.0,STARLINK-4105,PAYLOAD,2023-02-07 09:50:55,15.08835964,0.0001296,53.2158,180.1857,106.3773,253.7361,0.00010714,1.417e-05,0.0,0 STARLINK-4105,1 53168U 22083AN  23038.41036625  .00001417  00000-0  10714-3 0  9990,2 53168  53.2158 180.1857 0001296 106.3773 253.7361 15.08835964 31969,6917.893,95.438,540.654,538.861,0.0
53168.0,STARLINK-4105,PAYLOAD,2023-02-07 14:37:04,15.0884503,0.0001292,53.2156,179.2934,107.5535,252.5599,0.00017657,2.524e-05,0.0,0 STARLINK-4105,1 53168U 22083AN  23038.60907965  .00002524  00000-0  17657-3 0  9998,2 53168  53.2156 179.2934 0001292 107.5535 252.5599 15.08845030 31366,6917.865,95.437,540.624,538.836,0.0
